ONEWEB-0349             
1 49281U 21090C   25344.44182959  .00000033  00000+0  50188-4 0  9997
2 49281  87.9190 312.0829 0001813  81.2247 278.9092 13.20769905204917
ONEWEB-0353             
1 49282U 21090D   25344.43859346 -.00000132  00000+0 -39035-3 0  9997
2 49282  87.8992 327.3070 0002049  84.5459 275.5904 13.14503772202786
ONEWEB-0356             
1 49283U 21090E   25344.36450170 -.00000156  00000+0 -41574-3 0  9999
2 49283  87.9201 312.0908 0002202 107.0706 253.0669 13.20770047204902
ONEWEB-0358             
1 49284U 21090F   25344.47024534  .00000096  00000+0  20445-3 0  9998
2 49284  87.9201 312.0709 0001772  86.9626 273.1710 13.20770184205643
ONEWEB-0359             
1 49285U 21090G   25344.46708897  .00000095  00000+0  20107-3 0  9993
2 49285  87.9194 312.0710 0001378  85.4613 274.6678 13.20772640205625
ONEWEB-0360             
1 49286U 21090H   25344.38187448  .00000030  00000+0  40807-4 0  9997
2 49286  87.9192 312.0964 0001658  82.0740 278.0581 13.20773176204928
ONEWEB-0361             
1 49287U 21090J   25344.43868124  .00000063  00000+0  12328-3 0  9993
2 49287  87.9192 312.0808 0001827  89.0125 271.1218 13.20773304205383
ONEWEB-0362             
1 49288U 21090K   25344.46923500  .00000021  00000+0  20236-4 0  9999
2 49288  87.9191 342.5363 0001718  80.2818 279.8509 13.19724728202028
